[
  {
    "OBJECT_NAME": "SENTINEL-1A",
    "OBJECT_ID": "2014-016A",
    "EPOCH": "2026-07-20T12:00:00.000000",
    "MEAN_MOTION": 14.59198800,
    "ECCENTRICITY": 0.0001300,
    "INCLINATION": 98.1800,
    "RA_OF_ASC_NODE": 100.0000,
    "ARG_OF_PERICENTER": 90.0000,
    "MEAN_ANOMALY": 270.0000,
    "EPHEMERIS_TYPE": 0,
    "CLASSIFICATION_TYPE": "U",
    "NORAD_CAT_ID": 39634,
    "ELEMENT_SET_NO": 999,
    "REV_AT_EPOCH": 55555,
    "BSTAR": 0.0001,
    "MEAN_MOTION_DOT": 0.00000100,
    "MEAN_MOTION_DDOT": 0
  },
  {
    "OBJECT_NAME": "TERRASAR-X",
    "OBJECT_ID": "2007-026A",
    "EPOCH": "2026-07-20T12:00:00Z",
    "MEAN_MOTION": 15.19150000,
    "ECCENTRICITY": 0.0002000,
    "INCLINATION": 97.4400,
    "RA_OF_ASC_NODE": 200.0000,
    "ARG_OF_PERICENTER": 45.0000,
    "MEAN_ANOMALY": 315.0000,
    "EPHEMERIS_TYPE": 0,
    "CLASSIFICATION_TYPE": "U",
    "NORAD_CAT_ID": 31698,
    "ELEMENT_SET_NO": 999,
    "REV_AT_EPOCH": 99999,
    "BSTAR": 0.0002,
    "MEAN_MOTION_DOT": 0.00000200,
    "MEAN_MOTION_DDOT": 0
  },
  {
    "OBJECT_NAME": "ICEYE-X99",
    "OBJECT_ID": "2099-001A",
    "EPOCH": "2026-07-20T12:00:00.000000",
    "MEAN_MOTION": 15.05000000,
    "ECCENTRICITY": 0.0010000,
    "INCLINATION": 97.7000,
    "RA_OF_ASC_NODE": 300.0000,
    "ARG_OF_PERICENTER": 10.0000,
    "MEAN_ANOMALY": 350.0000,
    "EPHEMERIS_TYPE": 0,
    "CLASSIFICATION_TYPE": "U",
    "NORAD_CAT_ID": 99001,
    "ELEMENT_SET_NO": 1,
    "REV_AT_EPOCH": 1000,
    "BSTAR": 0.0003,
    "MEAN_MOTION_DOT": 0,
    "MEAN_MOTION_DDOT": 0
  },
  {
    "OBJECT_NAME": "MYSTERY RADAR SAT",
    "OBJECT_ID": "2099-002A",
    "EPOCH": "2026-07-20T12:00:00.000000",
    "MEAN_MOTION": 14.20000000,
    "ECCENTRICITY": 0.0015000,
    "INCLINATION": 45.0000,
    "RA_OF_ASC_NODE": 10.0000,
    "ARG_OF_PERICENTER": 120.0000,
    "MEAN_ANOMALY": 200.0000,
    "EPHEMERIS_TYPE": 0,
    "CLASSIFICATION_TYPE": "U",
    "NORAD_CAT_ID": 99002,
    "ELEMENT_SET_NO": 1,
    "REV_AT_EPOCH": 2000,
    "BSTAR": 0,
    "MEAN_MOTION_DOT": 0,
    "MEAN_MOTION_DDOT": 0
  }
]
